#dP2020  7 17  0  0  0.00000000      96 __u+U ITR00 FIT  IAC
## 2114 432000.00000000   900.00000000 59047 0.0000000000000
+  115   C06C07C08C09C10C11C12C13C14C16C19C20C21C22C23C24C25
+        C26C27C28C29C30C32C33C34C35C36C37C38C39C40C43C44C45
+        C46E01E02E03E04E05E07E08E09E11E12E13E14E15E18E19E21
+        E24E25E26E27E30E31E33E36G01G02G03G04G05G06G07G08G09
+        G10G11G12G13G14G15G16G17G18G19G20G21G22G24G25G26G27
+        G28G29G30G31G32J01J02J03R01R02R03R04R05R07R08R09R11
+        R12R13R14R15R16R17R18R19R20R21R23R24R26  0  0  0  0
++         8  7  8  8  7  7  6  7  7  8  6  7  7  6  8  7  7
++         7  9  8  6  7  9  8  8  6  6  7  5 10 10  8  7  8
++        10  7  5  5  5  6  7  7  6  5  6  7  5  7  5  6  7
++         5  5  6  6  6  6  6  8  5  6  5  6  5  6  6  5  5
++         5  6  5  6  5  7  7  5  5  6  4  6  6  5  5  6  5
++         5  5  6  5  5  8  8  0  7  7  6  6  7  6  6  6  7
++         6  7  7  7  6  6  7  8  6  7  7  6  7  0  0  0  0
%c M  cc GPS ccc cccc cccc cccc cccc ccccc ccccc ccccc ccccc
%c cc cc ccc ccc cccc cccc cccc cccc ccccc ccccc ccccc ccccc
%f  0.0000000  0.000000000  0.00000000000  0.000000000000000
%f  0.0000000  0.000000000  0.00000000000  0.000000000000000
%i    0    0    0    0      0      0      0      0         0
%i    0    0    0    0      0      0      0      0         0
/* INFORMATION & ANALYSIS CENTER (IAC)      ULTRA-RAPID DATA
/* S/V CLOCKS ARE ALIGNED TO GNSS TIME                      
/* G:C1WC2W R:C1PC2P E:C1XC5X C:C2IC6I J:C1CC2S             
/* PCV:IGS14_2113 OL/AL:FES2004  NONE     YN ORB:CoN CLK:CoN
*  2020 07 17 12 30  0.00000000
PC06  -6125.375112  30705.607261  28851.144853    784.479630
PC07 -20086.520793  24271.855326 -28049.710574    -42.095258
PC08 -18951.295912  37443.141066   1563.928237   -381.066827
PC09   5078.160265  37812.500204  18635.571293    682.232538
PC10  -5446.659980  26326.417211 -32336.463580   -234.541054
PC11  -3470.876018 -26930.608886   6611.281159   -496.470570
PC12   9014.202876 -16638.894942  20546.092674    434.992727
PC13  -8862.207165  38373.545093  14728.998139    547.547152
PC14  -2434.132360 -16483.358297 -22365.051658    681.328348
PC16  -3427.896516  31754.348030  27707.778082   -598.935088
PC19  12951.247368  16076.765860  18792.910661    477.868330
PC20  -7482.881125  14491.028347  22665.931194   -838.968324
PC21  24232.455029  -4154.081796 -13156.707154   -660.736017
PC22  26311.860429   8393.618153   3870.156405   -771.454194
PC23 -17659.991094  -3333.741731  21362.210469   -844.290922
PC24  14066.010750 -22932.129301   7448.586835   -763.260054
PC25  -3421.103554 -18372.619267  20728.820495   -689.104331
PC26  21798.361061 -14835.241761  -9182.969774    757.968837
PC27 -14388.217221   7054.861179 -22866.954482    365.852069
PC28 -16806.694810 -13605.502169 -17646.679703   -195.568373
PC29  10372.022501  25818.205159   2132.274403    257.180079
PC30  -2928.570616  23421.830549 -14905.891717    347.729909
PC32 -24218.058614   4365.966641  13189.788259   -876.498451
PC33 -13015.136344 -16031.230166 -18773.858193   -798.524453
PC34   2662.368172 -23679.410625  14497.150058   -899.903506
PC35  17283.518021  13226.949039  17477.847598   -746.023461
PC36   2750.986851  18579.312074 -20611.784749   -871.531853
PC37 -22204.240310  13770.744052   9818.159781   -871.977188
PC38 -17762.895326  38071.078077   2557.629570 999999.999999
PC39  -1067.485000  31938.522931  27564.032609     19.367817
PC40 -12738.061765  21021.448436 -34289.113806 999999.999999
PC43 -10050.016057 -25957.720024  -1839.851572   -286.155259
PC44  14353.122142  -7304.944755  22779.396606   -320.737304
PC45  17586.949977   3180.028680 -21422.512520    181.910892
PC46 -13609.303290  22999.717658  -7975.839121 999999.999999
PE01  15106.445282  10546.536601 -23162.078380   -900.134243
PE02 -15201.156241 -10487.476812  23134.240140    147.917630
PE03 -21244.417560 -20200.817587  -4161.019634   -321.552758
PE04  25211.692037   7248.656533 -13696.457371   -567.601614
PE05  -4747.342038 -21466.527645 -19815.354535   -362.507223
PE07 -14400.889002  10186.186643  23783.223105   -410.122794
PE08 -25174.997676  -6956.598708  13951.774639   6148.392662
PE09  14127.867327 -10261.498775 -23889.398798   5993.826774
PE11  13329.161688 -20975.774037  16055.415606   4162.275165
PE12  16337.424933    339.642380  24675.308070   5702.025154
PE13 -13296.027479  20841.769684 -16282.569141    402.383630
PE14  15139.281532  21370.174601    719.823485  -1087.351080
PE15 -16287.000820     -1.272306 -24715.627824    859.678438
PE18 -23538.695085 -13922.921873 -14748.859622  -1190.483293
PE19  19973.150248  20948.596394   6203.320717     29.925871
PE21  -5657.884723  18484.924207 -22416.097965   -610.585550
PE24  23807.507630 -15547.460993   8239.802663   5346.278055
PE25   5791.182995 -18506.415149  22370.448311   -513.744529
PE26  -2360.265001  29423.515179   2171.724275   2949.834898
PE27 -23534.469409  15788.112269  -8544.890235    175.609140
PE30 -27418.540236   3362.233344  10626.338559   3740.309632
PE31  27492.367980  -3846.750854 -10251.996287   -473.257555
PE33   9708.376615  20854.572297  18630.572441   -464.823043
PE36   2495.609052 -29443.743934  -1715.965751    532.966724
PG01  14520.413686 -20385.994865   8133.466802     26.349180
PG02 -15648.969450    853.473484 -20801.368541   -488.563719
PG03  18842.831944 -12304.919948 -14095.614857   -242.401318
PG04   7336.706294 -14764.188813 -20804.527122   -113.508005
PG05 -26299.766080   1189.429661  -4393.170015    -16.840146
PG06  -9803.121899 -13005.401625 -20920.676951   -304.202102
PG07   3830.179061 -24662.735702   8638.200927   -329.250490
PG08  15499.187914  -3946.346648  21258.191548    -41.256381
PG09  -3772.968054 -21723.209620 -14847.415731   -255.094886
PG10  12471.979033  12324.083166  20108.485447   -402.085374
PG11  12870.461094 -14181.683743  18042.345282   -218.679772
PG12 -19754.007810  10803.643453 -14202.506697     92.597020
PG13 -18032.448105  -5407.463748  18657.678536     27.526328
PG14  18017.317346  17932.181476  -7663.270947      2.022044
PG15 -15281.358153   6264.458676  20538.215479   -216.940098
PG16  26772.480812   -106.968397  -1541.484010   -183.837845
PG17 -14548.930835 -22247.500916    752.158837    297.245307
PG18  -4482.388614  24739.205235   8503.689558    248.392199
PG19 -17553.548187 -18480.955004  -7851.596366   -130.853175
PG20    -13.194705  16091.516955  21025.753953    527.278408
PG21   9930.436475  15334.043166  20148.728851     24.741653
PG22  23533.562262 -10163.983946  -6450.332187   -771.403298
PG24 -14632.447436  19263.554471  10328.536471    -15.772406
PG25  -9332.858517  15122.059437 -19896.138404     24.317333
PG26  21972.400173   6325.635637 -13735.104099    244.927089
PG27  19641.328227   7504.364121  16282.800562   -348.061397
PG28 -12650.671188 -12974.748598  19947.976581    698.732715
PG29  -1155.394498  19657.339764 -17851.124768   -152.248437
PG30  -4266.093069 -20193.078449  16644.524732   -263.794712
PG31  11354.772372  11218.358743 -21201.590912    -56.164138
PG32  16549.484329  20876.960633   -279.017106    318.415918
PJ01 -28611.377276  21907.130870  26999.381603   -210.867077
PJ02 -36262.264607  20968.690375   -586.063598     -1.363708
PJ03      0.000000      0.000000      0.000000 999999.999999
PR01 -14176.811194   5032.742795  20608.894805     64.674662
PR02   7378.928828  13616.139843  20328.547480    436.679681
PR03  21204.016742  12499.381848   6830.736016     18.701772
PR04  22853.419057   4343.072212 -10438.422538     56.603547
PR05  11651.770863  -6169.694909 -21826.964238     54.229302
PR07 -21468.796433 -12274.789482  -6130.888394    -38.536121
PR08 -22854.215976  -4241.460254  10545.945412    -53.512807
PR09   1144.612759 -14016.943003  21280.597804    143.883996
PR11 -20928.735144   8885.675762  11637.327687    -30.829791
PR12 -18434.605253  16922.550212  -4876.658782    147.856994
PR13  -5220.040707  15730.342141 -19404.666347    -41.321472
PR14  11057.596487   5108.450248 -22393.123937     53.433053
PR15  20698.451971  -8252.986375 -12385.772279    106.944028
PR16  17803.398925 -17505.020143   5497.748994     -4.693249
PR17   9125.314018  18440.123176  15052.423257    341.955679
PR18  10686.698818   1780.759971  23103.516670     42.593615
PR19   7122.631911 -15349.456189  19083.028203   -102.740398
PR20  -1369.085239 -25363.601651   2102.391112   -416.961295
PR21  -9283.470499 -17750.297928 -15818.191554   -138.713633
PR23  -4041.935229  20848.763705 -14143.241825    319.219242
PR24   1885.477121  25395.186323  -1330.697833      6.594839
PR26    443.663395 -24504.914540   7130.174716   -365.174616
EOF
